STARLINK-11197 [DTC]    
1 60186U 24124D   25210.63143775 -.00001504  00000+0 -75555-5 0  9993
2 60186  53.1589 180.6066 0001202 105.8320 254.2830 15.69703765 61500
STARLINK-11183 [DTC]    
1 60189U 24124G   25210.61681612 -.00001081  00000+0 -40674-5 0  9995
2 60189  53.1589 181.2426 0001067 117.2012 242.9115 15.69714818 61493
STARLINK-11179 [DTC]    
1 60190U 24124H   25210.22989657 -.00000237  00000+0  28997-5 0  9999
2 60190  53.1584 183.0919 0001079  83.2858 276.8282 15.69709282 61434
STARLINK-11175 [DTC]    
1 60191U 24124J   25210.22499284  .00002906  00000+0  28833-4 0  9994
2 60191  53.1572 183.0584 0001175  88.9851 271.1302 15.69713904 62610
STARLINK-11173 [DTC]    
1 60192U 24124K   25210.22007775  .00000489  00000+0  88916-5 0  9998
2 60192  53.1590 183.0274 0001159  92.1469 267.9681 15.69725707 61437
STARLINK-11172 [DTC]    
1 60193U 24124L   25210.21517106  .00000250  00000+0  69167-5 0  9995
2 60193  53.1590 182.9931 0001125  83.2763 276.8383 15.69725079 62551
STARLINK-11152 [DTC]    
1 60194U 24124M   25210.21026659  .00000229  00000+0  67406-5 0  9994
2 60194  53.1588 182.9602 0001032  85.4541 274.6595 15.69724462 62623
STARLINK-11193 [DTC]    
1 60195U 24124N   25210.65105500 -.00000419  00000+0  13954-5 0  9997
2 60195  53.1579 180.7312 0000973  88.4474 271.6655 15.69707407 61509
STARLINK-31869          
1 60196U 24124P   25210.48772923  .00000052  00000+0  13894-4 0  9992
2 60196  53.1592 279.1680 0001053  80.6624 279.4495 15.30189641 60124
STARLINK-32023          
1 60197U 24124Q   25210.45723645  .00000118  00000+0  16116-4 0  9990
2 60197  53.1589 279.6859 0001210  88.9396 271.1743 15.30188987 60112
STARLINK-32046          
1 60198U 24124R   25210.49933043  .00003666  00000+0  13591-3 0  9994
2 60198  53.1593 279.2375 0000869  92.0659 268.0442 15.30183568 61352
STARLINK-32049          
1 60199U 24124S   25210.51306887 -.00000374  00000+0 -51831-6 0  9995
2 60199  53.1603 279.3256 0001270  78.9540 281.1604 15.30182130 61353
STARLINK-32002          
1 60200U 24124T   25210.50039134  .00000141  00000+0  16880-4 0  9998
2 60200  53.1591 279.2421 0000962  95.6718 264.4393 15.30186686 60128
STARLINK-32020          
1 60201U 24124U   25210.47295335  .00000333  00000+0  23379-4 0  9996
2 60201  53.1597 279.0681 0001140  73.2727 286.8398 15.30187445 60129
