[{"OBJECT_NAME":"STARLINK-11197 [DTC]","OBJECT_ID":"2024-124D","EPOCH":"2025-07-29T15:09:16.221600","MEAN_MOTION":15.69703765,"ECCENTRICITY":0.0001202,"INCLINATION":53.1589,"RA_OF_ASC_NODE":180.6066,"ARG_OF_PERICENTER":105.832,"MEAN_ANOMALY":254.283,"EPHEMERIS_TYPE":0,"CLASSIFICATION_TYPE":"U","NORAD_CAT_ID":60186,"ELEMENT_SET_NO":999,"REV_AT_EPOCH":6268,"BSTAR":-7.5555e-6,"MEAN_MOTION_DOT":-1.504e-5,"MEAN_MOTION_DDOT":0},{"OBJECT_NAME":"STARLINK-11183 [DTC]","OBJECT_ID":"2024-124G","EPOCH":"2025-07-29T14:48:12.912768","MEAN_MOTION":15.69714818,"ECCENTRICITY":0.0001067,"INCLINATION":53.1589,"RA_OF_ASC_NODE":181.2426,"ARG_OF_PERICENTER":117.2012,"MEAN_ANOMALY":242.9115,"EPHEMERIS_TYPE":0,"CLASSIFICATION_TYPE":"U","NORAD_CAT_ID":60189,"ELEMENT_SET_NO":999,"REV_AT_EPOCH":6245,"BSTAR":-4.0674e-6,"MEAN_MOTION_DOT":-1.081e-5,"MEAN_MOTION_DDOT":0},{"OBJECT_NAME":"STARLINK-11179 [DTC]","OBJECT_ID":"2024-124H","EPOCH":"2025-07-29T05:31:03.063648","MEAN_MOTION":15.69709282,"ECCENTRICITY":0.0001079,"INCLINATION":53.1584,"RA_OF_ASC_NODE":183.0919,"ARG_OF_PERICENTER":83.2858,"MEAN_ANOMALY":276.8282,"EPHEMERIS_TYPE":0,"CLASSIFICATION_TYPE":"U","NORAD_CAT_ID":60190,"ELEMENT_SET_NO":999,"REV_AT_EPOCH":6143,"BSTAR":2.8997e-6,"MEAN_MOTION_DOT":-2.37e-6,"MEAN_MOTION_DDOT":0},{"OBJECT_NAME":"STARLINK-11175 [DTC]","OBJECT_ID":"2024-124J","EPOCH":"2025-07-29T05:23:59.381376","MEAN_MOTION":15.69713904,"ECCENTRICITY":0.0001175,"INCLINATION":53.1572,"RA_OF_ASC_NODE":183.0584,"ARG_OF_PERICENTER":88.9851,"MEAN_ANOMALY":271.1302,"EPHEMERIS_TYPE":0,"CLASSIFICATION_TYPE":"U","NORAD_CAT_ID":60191,"ELEMENT_SET_NO":999,"REV_AT_EPOCH":6261,"BSTAR":2.8833e-5,"MEAN_MOTION_DOT":2.906e-5,"MEAN_MOTION_DDOT":0},{"OBJECT_NAME":"STARLINK-11173 [DTC]","OBJECT_ID":"2024-124K","EPOCH":"2025-07-29T05:16:54.717600","MEAN_MOTION":15.69725707,"ECCENTRICITY":0.0001159,"INCLINATION":53.159,"RA_OF_ASC_NODE":183.0274,"ARG_OF_PERICENTER":92.1469,"MEAN_ANOMALY":267.9681,"EPHEMERIS_TYPE":0,"CLASSIFICATION_TYPE":"U","NORAD_CAT_ID":60192,"ELEMENT_SET_NO":999,"REV_AT_EPOCH":6143,"BSTAR":8.8916e-6,"MEAN_MOTION_DOT":4.89e-6,"MEAN_MOTION_DDOT":0},{"OBJECT_NAME":"STARLINK-11172 [DTC]","OBJECT_ID":"2024-124L","EPOCH":"2025-07-29T05:09:50.779584","MEAN_MOTION":15.69725079,"ECCENTRICITY":0.0001125,"INCLINATION":53.159,"RA_OF_ASC_NODE":182.9931,"ARG_OF_PERICENTER":83.2763,"MEAN_ANOMALY":276.8383,"EPHEMERIS_TYPE":0,"CLASSIFICATION_TYPE":"U","NORAD_CAT_ID":60193,"ELEMENT_SET_NO":999,"REV_AT_EPOCH":6255,"BSTAR":6.9167e-6,"MEAN_MOTION_DOT":2.5e-6,"MEAN_MOTION_DDOT":0},{"OBJECT_NAME":"STARLINK-11152 [DTC]","OBJECT_ID":"2024-124M","EPOCH":"2025-07-29T05:02:47.033376","MEAN_MOTION":15.69724462,"ECCENTRICITY":0.0001032,"INCLINATION":53.1588,"RA_OF_ASC_NODE":182.9602,"ARG_OF_PERICENTER":85.4541,"MEAN_ANOMALY":274.6595,"EPHEMERIS_TYPE":0,"CLASSIFICATION_TYPE":"U","NORAD_CAT_ID":60194,"ELEMENT_SET_NO":999,"REV_AT_EPOCH":6262,"BSTAR":6.7406e-6,"MEAN_MOTION_DOT":2.29e-6,"MEAN_MOTION_DDOT":0},{"OBJECT_NAME":"STARLINK-11193 [DTC]","OBJECT_ID":"2024-124N","EPOCH":"2025-07-29T15:37:31.152000","MEAN_MOTION":15.69707407,"ECCENTRICITY":9.73e-5,"INCLINATION":53.1579,"RA_OF_ASC_NODE":180.7312,"ARG_OF_PERICENTER":88.4474,"MEAN_ANOMALY":271.6655,"EPHEMERIS_TYPE":0,"CLASSIFICATION_TYPE":"U","NORAD_CAT_ID":60195,"ELEMENT_SET_NO":999,"REV_AT_EPOCH":6269,"BSTAR":1.3954e-6,"MEAN_MOTION_DOT":-4.19e-6,"MEAN_MOTION_DDOT":0},{"OBJECT_NAME":"STARLINK-31869","OBJECT_ID":"2024-124P","EPOCH":"2025-07-29T11:42:19.805472","MEAN_MOTION":15.30189641,"ECCENTRICITY":0.0001053,"INCLINATION":53.1592,"RA_OF_ASC_NODE":279.168,"ARG_OF_PERICENTER":80.6624,"MEAN_ANOMALY":279.4495,"EPHEMERIS_TYPE":0,"CLASSIFICATION_TYPE":"U","NORAD_CAT_ID":60196,"ELEMENT_SET_NO":999,"REV_AT_EPOCH":6012,"BSTAR":1.3894e-5,"MEAN_MOTION_DOT":5.2e-7,"MEAN_MOTION_DDOT":0},{"OBJECT_NAME":"STARLINK-32023","OBJECT_ID":"2024-124Q","EPOCH":"2025-07-29T10:58:25.229280","MEAN_MOTION":15.30188987,"ECCENTRICITY":0.000121,"INCLINATION":53.1589,"RA_OF_ASC_NODE":279.6859,"ARG_OF_PERICENTER":88.9396,"MEAN_ANOMALY":271.1743,"EPHEMERIS_TYPE":0,"CLASSIFICATION_TYPE":"U","NORAD_CAT_ID":60197,"ELEMENT_SET_NO":999,"REV_AT_EPOCH":6011,"BSTAR":1.6116e-5,"MEAN_MOTION_DOT":1.18e-6,"MEAN_MOTION_DDOT":0},{"OBJECT_NAME":"STARLINK-32046","OBJECT_ID":"2024-124R","EPOCH":"2025-07-29T11:59:02.149152","MEAN_MOTION":15.30183568,"ECCENTRICITY":8.69e-5,"INCLINATION":53.1593,"RA_OF_ASC_NODE":279.2375,"ARG_OF_PERICENTER":92.0659,"MEAN_ANOMALY":268.0442,"EPHEMERIS_TYPE":0,"CLASSIFICATION_TYPE":"U","NORAD_CAT_ID":60198,"ELEMENT_SET_NO":999,"REV_AT_EPOCH":6135,"BSTAR":0.00013591,"MEAN_MOTION_DOT":3.666e-5,"MEAN_MOTION_DDOT":0},{"OBJECT_NAME":"STARLINK-32049","OBJECT_ID":"2024-124S","EPOCH":"2025-07-29T12:18:49.150368","MEAN_MOTION":15.3018213,"ECCENTRICITY":0.000127,"INCLINATION":53.1603,"RA_OF_ASC_NODE":279.3256,"ARG_OF_PERICENTER":78.954,"MEAN_ANOMALY":281.1604,"EPHEMERIS_TYPE":0,"CLASSIFICATION_TYPE":"U","NORAD_CAT_ID":60199,"ELEMENT_SET_NO":999,"REV_AT_EPOCH":6135,"BSTAR":-5.1831e-7,"MEAN_MOTION_DOT":-3.74e-6,"MEAN_MOTION_DDOT":0},{"OBJECT_NAME":"STARLINK-32002","OBJECT_ID":"2024-124T","EPOCH":"2025-07-29T12:00:33.811776","MEAN_MOTION":15.30186686,"ECCENTRICITY":9.62e-5,"INCLINATION":53.1591,"RA_OF_ASC_NODE":279.2421,"ARG_OF_PERICENTER":95.6718,"MEAN_ANOMALY":264.4393,"EPHEMERIS_TYPE":0,"CLASSIFICATION_TYPE":"U","NORAD_CAT_ID":60200,"ELEMENT_SET_NO":999,"REV_AT_EPOCH":6012,"BSTAR":1.688e-5,"MEAN_MOTION_DOT":1.41e-6,"MEAN_MOTION_DDOT":0},{"OBJECT_NAME":"STARLINK-32020","OBJECT_ID":"2024-124U","EPOCH":"2025-07-29T11:21:03.169440","MEAN_MOTION":15.30187445,"ECCENTRICITY":0.000114,"INCLINATION":53.1597,"RA_OF_ASC_NODE":279.0681,"ARG_OF_PERICENTER":73.2727,"MEAN_ANOMALY":286.8398,"EPHEMERIS_TYPE":0,"CLASSIFICATION_TYPE":"U","NORAD_CAT_ID":60201,"ELEMENT_SET_NO":999,"REV_AT_EPOCH":6012,"BSTAR":2.3379e-5,"MEAN_MOTION_DOT":3.33e-6,"MEAN_MOTION_DDOT":0}]
